[{"OBJECT_NAME":"STARLINK-4268","OBJECT_ID":"2022-083BD","EPOCH":"2026-03-09T11:07:28.036416","MEAN_MOTION":15.08833641,"ECCENTRICITY":0.00014905,"INCLINATION":53.2166,"RA_OF_ASC_NODE":130.0462,"ARG_OF_PERICENTER":87.0971,"MEAN_ANOMALY":273.0192,"EPHEMERIS_TYPE":0,"CLASSIFICATION_TYPE":"U","NORAD_CAT_ID":53183,"ELEMENT_SET_NO":999,"REV_AT_EPOCH":20180,"BSTAR":-1.6449205e-5,"MEAN_MOTION_DOT":-5.5e-6,"MEAN_MOTION_DDOT":0},{"OBJECT_NAME":"UNKNOWN","OBJECT_ID":"","EPOCH":"2026-03-09T06:54:16.920576","MEAN_MOTION":14.16736547,"ECCENTRICITY":0.0425292,"INCLINATION":65.6395,"RA_OF_ASC_NODE":176.1827,"ARG_OF_PERICENTER":77.7512,"MEAN_ANOMALY":316.077,"EPHEMERIS_TYPE":0,"CLASSIFICATION_TYPE":"U","NORAD_CAT_ID":87245,"ELEMENT_SET_NO":999,"REV_AT_EPOCH":62646,"BSTAR":0.00096148,"MEAN_MOTION_DOT":4.608e-5,"MEAN_MOTION_DDOT":0}]
